OBJECT C                
1 57582U 23117C   24290.18554386  .00013473  00000+0  64046-3 0  9998
2 57582  97.4757   0.7650 0009221 226.5967 133.4501 15.19288247 65530
